0 COSMOS 2251 DEB
1 35982U 93036AVY 13281.76630125  .00001544  00000-0  40533-3 0  3584
2 35982 074.0618 085.8215 0083735 217.7640 141.7626 14.47997827216977
0 COSMOS 2251 DEB
1 35982U 93036AVY 13282.80264142  .00001454  00000-0  38219-3 0  3591
2 35982 074.0619 083.8845 0083693 215.5839 143.9724 14.48005108217128
0 COSMOS 2251 DEB
1 35982U 93036AVY 13284.11533372  .00001915  00000-0  50073-3 0  3607
2 35982 074.0621 081.4309 0083607 212.8166 146.7786 14.48009369217311
0 COSMOS 2251 DEB
1 35982U 93036AVY 13285.42802219  .00001589  00000-0  41675-3 0  3617
2 35982 074.0624 078.9772 0083566 210.0361 149.5993 14.48014496217509
0 COSMOS 2251 DEB
1 35982U 93036AVY 13287.08614841  .00002007  00000-0  52448-3 0  3620
2 35982 074.0628 075.8781 0083500 206.5703 153.1166 14.48018979217746
0 COSMOS 2251 DEB
1 35982U 93036AVY 13288.39882720  .00002745  00000-0  71419-3 0  3637
2 35982 074.0631 073.4245 0083432 203.7993 155.9300 14.48026565217934
0 COSMOS 2251 DEB
1 35982U 93036AVY 13289.08970919  .00002317  00000-0  60405-3 0  3641
2 35982 074.0632 072.1330 0083377 202.3152 157.4373 14.48031213218031
0 COSMOS 2251 DEB
1 35982U 93036AVY 13294.68578937  .00002742  00000-0  71334-3 0  3653
2 35982 074.0639 061.6740 0082987 190.4545 169.4893 14.48056757218844
